{
  "type": "FeatureCollection",
  "features": [
    {
      "type": "Feature",
      "properties": {
        "norad_id": 38137,
        "name": "FENGYUN 1C DEB",
        "group": "fengyun-1c-debris",
        "lat": 58.256354982372976,
        "lon": 10.38780727244079,
        "alt_km": 835.5235280628367,
        "timestamp": "2025-12-08T03:50:07.286638+00:00",
        "meta_object_name": "FENGYUN 1C DEB",
        "meta_object_id": "1999-025EQJ",
        "meta_epoch": "2025-12-03T09:08:14.061984",
        "meta_mean_motion": 14.06146655,
        "meta_eccentricity": 0.00467474,
        "meta_inclination": 98.8662,
        "meta_ra_of_asc_node": 20.3228,
        "meta_arg_of_pericenter": 95.1511,
        "meta_mean_anomaly": 265.4995,
        "meta_ephemeris_type": 0,
        "meta_classification_type": "U",
        "meta_norad_cat_id": 38137,
        "meta_element_set_no": 999,
        "meta_rev_at_epoch": 63577,
        "meta_bstar": 0.00028746686,
        "meta_mean_motion_dot": 4.34e-06,
        "meta_mean_motion_ddot": 0,
        "tle_line1": "1 38137U 99025EQJ 25337.38071831  .00000434  00000+0  28747-3 0  9999",
        "tle_line2": "2 38137  98.8662  20.3228 0046747  95.1511 265.4995 14.06146655635776"
      },
      "geometry": {
        "type": "Point",
        "coordinates": [
          10.38780727244079,
          58.256354982372976
        ]
      }
    },
    {
      "type": "Feature",
      "properties": {
        "norad_id": 38143,
        "name": "FENGYUN 1C DEB",
        "group": "fengyun-1c-debris",
        "lat": -27.493330596463814,
        "lon": -146.65424975945461,
        "alt_km": 846.3105585565372,
        "timestamp": "2025-12-08T03:50:07.286648+00:00",
        "meta_object_name": "FENGYUN 1C DEB",
        "meta_object_id": "1999-025EQQ",
        "meta_epoch": "2025-12-02T22:04:03.833184",
        "meta_mean_motion": 14.04865193,
        "meta_eccentricity": 0.00557173,
        "meta_inclination": 99.0286,
        "meta_ra_of_asc_node": 32.8796,
        "meta_arg_of_pericenter": 248.4749,
        "meta_mean_anomaly": 111.0473,
        "meta_ephemeris_type": 0,
        "meta_classification_type": "U",
        "meta_norad_cat_id": 38143,
        "meta_element_set_no": 999,
        "meta_rev_at_epoch": 60145,
        "meta_bstar": 0.00072272115,
        "meta_mean_motion_dot": 1.132e-05,
        "meta_mean_motion_ddot": 0,
        "tle_line1": "1 38143U 99025EQQ 25336.91948881  .00001132  00000+0  72272-3 0  9990",
        "tle_line2": "2 38143  99.0286  32.8796 0055717 248.4749 111.0473 14.04865193601457"
      },
      "geometry": {
        "type": "Point",
        "coordinates": [
          -146.65424975945461,
          -27.493330596463814
        ]
      }
    },
    {
      "type": "Feature",
      "properties": {
        "norad_id": 38144,
        "name": "FENGYUN 1C DEB",
        "group": "fengyun-1c-debris",
        "lat": -62.240914526236395,
        "lon": -30.455091609307956,
        "alt_km": 878.9364771412193,
        "timestamp": "2025-12-08T03:50:07.286658+00:00",
        "meta_object_name": "FENGYUN 1C DEB",
        "meta_object_id": "1999-025EQR",
        "meta_epoch": "2025-12-06T18:50:18.188736",
        "meta_mean_motion": 13.58996944,
        "meta_eccentricity": 0.02905665,
        "meta_inclination": 98.9685,
        "meta_ra_of_asc_node": 165.7451,
        "meta_arg_of_pericenter": 207.0505,
        "meta_mean_anomaly": 151.5239,
        "meta_ephemeris_type": 0,
        "meta_classification_type": "U",
        "meta_norad_cat_id": 38144,
        "meta_element_set_no": 999,
        "meta_rev_at_epoch": 60956,
        "meta_bstar": 0.0028636458,
        "meta_mean_motion_dot": 2.734e-05,
        "meta_mean_motion_ddot": 0,
        "tle_line1": "1 38144U 99025EQR 25340.78493274  .00002734  00000+0  28636-2 0  9995",
        "tle_line2": "2 38144  98.9685 165.7451 0290566 207.0505 151.5239 13.58996944609563"
      },
      "geometry": {
        "type": "Point",
        "coordinates": [
          -30.455091609307956,
          -62.240914526236395
        ]
      }
    },
    {
      "type": "Feature",
      "properties": {
        "norad_id": 38146,
        "name": "FENGYUN 1C DEB",
        "group": "fengyun-1c-debris",
        "lat": -44.647440542865986,
        "lon": 71.52872465842722,
        "alt_km": 838.9410350102116,
        "timestamp": "2025-12-08T03:50:07.286668+00:00",
        "meta_object_name": "FENGYUN 1C DEB",
        "meta_object_id": "1999-025EQT",
        "meta_epoch": "2025-12-03T10:45:50.404320",
        "meta_mean_motion": 14.59033464,
        "meta_eccentricity": 0.02030621,
        "meta_inclination": 99.485,
        "meta_ra_of_asc_node": 56.6441,
        "meta_arg_of_pericenter": 130.793,
        "meta_mean_anomaly": 291.7125,
        "meta_ephemeris_type": 0,
        "meta_classification_type": "U",
        "meta_norad_cat_id": 38146,
        "meta_element_set_no": 999,
        "meta_rev_at_epoch": 31744,
        "meta_bstar": 0.0015249301,
        "meta_mean_motion_dot": 9.498e-05,
        "meta_mean_motion_ddot": 0,
        "tle_line1": "1 38146U 99025EQT 25337.44850005  .00009498  00000+0  15249-2 0  9995",
        "tle_line2": "2 38146  99.4850  56.6441 0203062 130.7930 291.7125 14.59033464317446"
      },
      "geometry": {
        "type": "Point",
        "coordinates": [
          71.52872465842722,
          -44.647440542865986
        ]
      }
    },
    {
      "type": "Feature",
      "properties": {
        "norad_id": 38147,
        "name": "FENGYUN 1C DEB",
        "group": "fengyun-1c-debris",
        "lat": -8.775067986649136,
        "lon": -2.161844055919407,
        "alt_km": 789.1011296270144,
        "timestamp": "2025-12-08T03:50:07.286678+00:00",
        "meta_object_name": "FENGYUN 1C DEB",
        "meta_object_id": "1999-025EQU",
        "meta_epoch": "2025-11-29T07:18:26.920800",
        "meta_mean_motion": 14.23385127,
        "meta_eccentricity": 0.0050737,
        "meta_inclination": 98.5592,
        "meta_ra_of_asc_node": 347.8933,
        "meta_arg_of_pericenter": 338.7731,
        "meta_mean_anomaly": 21.1342,
        "meta_ephemeris_type": 0,
        "meta_classification_type": "U",
        "meta_norad_cat_id": 38147,
        "meta_element_set_no": 999,
        "meta_rev_at_epoch": 60196,
        "meta_bstar": 0.00059773367,
        "meta_mean_motion_dot": 1.331e-05,
        "meta_mean_motion_ddot": 0,
        "tle_line1": "1 38147U 99025EQU 25333.30447825  .00001331  00000+0  59773-3 0  9998",
        "tle_line2": "2 38147  98.5592 347.8933 0050737 338.7731  21.1342 14.23385127601965"
      },
      "geometry": {
        "type": "Point",
        "coordinates": [
          -2.161844055919407,
          -8.775067986649136
        ]
      }
    },
    {
      "type": "Feature",
      "properties": {
        "norad_id": 38149,
        "name": "FENGYUN 1C DEB",
        "group": "fengyun-1c-debris",
        "lat": 81.54323550718446,
        "lon": -124.04146528123111,
        "alt_km": 791.1255550515743,
        "timestamp": "2025-12-08T03:50:07.286688+00:00",
        "meta_object_name": "FENGYUN 1C DEB",
        "meta_object_id": "1999-025EQW",
        "meta_epoch": "2025-12-07T05:30:42.284448",
        "meta_mean_motion": 14.25909819,
        "meta_eccentricity": 0.00776728,
        "meta_inclination": 98.3567,
        "meta_ra_of_asc_node": 333.7197,
        "meta_arg_of_pericenter": 177.3945,
        "meta_mean_anomaly": 182.7656,
        "meta_ephemeris_type": 0,
        "meta_classification_type": "U",
        "meta_norad_cat_id": 38149,
        "meta_element_set_no": 999,
        "meta_rev_at_epoch": 70409,
        "meta_bstar": 0.00036197509,
        "meta_mean_motion_dot": 8.49e-06,
        "meta_mean_motion_ddot": 0,
        "tle_line1": "1 38149U 99025EQW 25341.22965607  .00000849  00000+0  36198-3 0  9992",
        "tle_line2": "2 38149  98.3567 333.7197 0077672 177.3945 182.7656 14.25909819704096"
      },
      "geometry": {
        "type": "Point",
        "coordinates": [
          -124.04146528123111,
          81.54323550718446
        ]
      }
    },
    {
      "type": "Feature",
      "properties": {
        "norad_id": 38155,
        "name": "FENGYUN 1C DEB",
        "group": "fengyun-1c-debris",
        "lat": 42.95602700426519,
        "lon": -121.27002313116455,
        "alt_km": 813.3626986716736,
        "timestamp": "2025-12-08T03:50:07.286698+00:00",
        "meta_object_name": "FENGYUN 1C DEB",
        "meta_object_id": "1999-025ERC",
        "meta_epoch": "2025-12-02T22:55:17.920128",
        "meta_mean_motion": 14.24904344,
        "meta_eccentricity": 0.0095238,
        "meta_inclination": 98.4544,
        "meta_ra_of_asc_node": 241.676,
        "meta_arg_of_pericenter": 156.473,
        "meta_mean_anomaly": 204.085,
        "meta_ephemeris_type": 0,
        "meta_classification_type": "U",
        "meta_norad_cat_id": 38155,
        "meta_element_set_no": 999,
        "meta_rev_at_epoch": 63636,
        "meta_bstar": 0.0036122,
        "meta_mean_motion_dot": 8.816e-05,
        "meta_mean_motion_ddot": 0,
        "tle_line1": "1 38155U 99025ERC 25336.95506852  .00008816  00000+0  36122-2 0  9994",
        "tle_line2": "2 38155  98.4544 241.6760 0095238 156.4730 204.0850 14.24904344636365"
      },
      "geometry": {
        "type": "Point",
        "coordinates": [
          -121.27002313116455,
          42.95602700426519
        ]
      }
    }
  ]
}